TEVEL2-9                
1 63237U 25052AD  26068.70229538  .00018694  00000+0  67240-3 0  9992
2 63237  97.4057 324.3929 0007990 124.2475 235.9522 15.28633834 54816
STARLINK-34573          
1 64676U 25139N   26068.40111997  .00016139  00000+0  55580-3 0  9998
2 64676  53.1576 128.1133 0001130 100.9056 259.2072 15.30201397 40241
